CCSDS_OMM_VERS = 2.0
CREATION_DATE  = 
ORIGINATOR     = 

OBJECT_NAME    = STARLINK-35983
OBJECT_ID      = 2025-283AA
CENTER_NAME    = EARTH
REF_FRAME      = TEME
TIME_SYSTEM    = UTC
MEAN_ELEMENT_THEORY = SGP/SGP4

EPOCH          = 2026-01-02T19:13:13.279296
MEAN_MOTION    = 15.42596535
ECCENTRICITY   = .0002263
INCLINATION    = 53.1592
RA_OF_ASC_NODE = 330.3937
ARG_OF_PERICENTER = 20.9328
MEAN_ANOMALY   = 339.1770

EPHEMERIS_TYPE = 0
CLASSIFICATION_TYPE = U
NORAD_CAT_ID   = 66902
ELEMENT_SET_NO = 999
REV_AT_EPOCH   = 575
BSTAR          = -.93123E-2
MEAN_MOTION_DOT = -.391423E-2
MEAN_MOTION_DDOT = 0

CCSDS_OMM_VERS = 2.0
CREATION_DATE  = 
ORIGINATOR     = 

OBJECT_NAME    = STARLINK-36077
OBJECT_ID      = 2025-283AB
CENTER_NAME    = EARTH
REF_FRAME      = TEME
TIME_SYSTEM    = UTC
MEAN_ELEMENT_THEORY = SGP/SGP4

EPOCH          = 2026-01-02T20:00:01.999872
MEAN_MOTION    = 15.45041797
ECCENTRICITY   = .000137
INCLINATION    = 53.1596
RA_OF_ASC_NODE = 330.2063
ARG_OF_PERICENTER = 98.1092
MEAN_ANOMALY   = 99.0817

EPHEMERIS_TYPE = 0
CLASSIFICATION_TYPE = U
NORAD_CAT_ID   = 66903
ELEMENT_SET_NO = 999
REV_AT_EPOCH   = 582
BSTAR          = -.47197E-1
MEAN_MOTION_DOT = -.2017557E-1
MEAN_MOTION_DDOT = 0

CCSDS_OMM_VERS = 2.0
CREATION_DATE  = 
ORIGINATOR     = 

OBJECT_NAME    = STARLINK-36059
OBJECT_ID      = 2025-283AC
CENTER_NAME    = EARTH
REF_FRAME      = TEME
TIME_SYSTEM    = UTC
MEAN_ELEMENT_THEORY = SGP/SGP4

EPOCH          = 2026-01-02T19:07:53.367744
MEAN_MOTION    = 15.46667717
ECCENTRICITY   = .0002209
INCLINATION    = 53.1603
RA_OF_ASC_NODE = 330.3691
ARG_OF_PERICENTER = 2.6460
MEAN_ANOMALY   = 357.4560

EPHEMERIS_TYPE = 0
CLASSIFICATION_TYPE = U
NORAD_CAT_ID   = 66904
ELEMENT_SET_NO = 999
REV_AT_EPOCH   = 575
BSTAR          = -.84852E-2
MEAN_MOTION_DOT = -.408991E-2
MEAN_MOTION_DDOT = 0

CCSDS_OMM_VERS = 2.0
CREATION_DATE  = 
ORIGINATOR     = 

OBJECT_NAME    = STARLINK-36075
OBJECT_ID      = 2025-283AD
CENTER_NAME    = EARTH
REF_FRAME      = TEME
TIME_SYSTEM    = UTC
MEAN_ELEMENT_THEORY = SGP/SGP4

EPOCH          = 2026-01-02T20:00:01.999872
MEAN_MOTION    = 15.31252665
ECCENTRICITY   = .0001384
INCLINATION    = 53.1597
RA_OF_ASC_NODE = 330.4294
ARG_OF_PERICENTER = 101.9767
MEAN_ANOMALY   = 342.7330

EPHEMERIS_TYPE = 0
CLASSIFICATION_TYPE = U
NORAD_CAT_ID   = 66905
ELEMENT_SET_NO = 999
REV_AT_EPOCH   = 582
BSTAR          = -.12502E-1
MEAN_MOTION_DOT = -.364875E-2
MEAN_MOTION_DDOT = 0

CCSDS_OMM_VERS = 2.0
CREATION_DATE  = 
ORIGINATOR     = 

OBJECT_NAME    = 1998-067XS
OBJECT_ID      = 1998-067XS
CENTER_NAME    = EARTH
REF_FRAME      = TEME
TIME_SYSTEM    = UTC
MEAN_ELEMENT_THEORY = SGP/SGP4

EPOCH          = 2026-01-02T08:17:41.028864
MEAN_MOTION    = 15.51815107
ECCENTRICITY   = .00024756
INCLINATION    = 51.6322
RA_OF_ASC_NODE = 40.1398
ARG_OF_PERICENTER = 312.2707
MEAN_ANOMALY   = 47.8073

EPHEMERIS_TYPE = 0
CLASSIFICATION_TYPE = U
NORAD_CAT_ID   = 66906
ELEMENT_SET_NO = 999
REV_AT_EPOCH   = 481
BSTAR          = .61956089E-3
MEAN_MOTION_DOT = .37434E-3
MEAN_MOTION_DDOT = 0

CCSDS_OMM_VERS = 2.0
CREATION_DATE  = 
ORIGINATOR     = 

OBJECT_NAME    = 1998-067XT
OBJECT_ID      = 1998-067XT
CENTER_NAME    = EARTH
REF_FRAME      = TEME
TIME_SYSTEM    = UTC
MEAN_ELEMENT_THEORY = SGP/SGP4

EPOCH          = 2026-01-02T09:15:00.543744
MEAN_MOTION    = 15.54439264
ECCENTRICITY   = .00038664
INCLINATION    = 51.6313
RA_OF_ASC_NODE = 39.6563
ARG_OF_PERICENTER = 354.2488
MEAN_ANOMALY   = 5.8458

EPHEMERIS_TYPE = 0
CLASSIFICATION_TYPE = U
NORAD_CAT_ID   = 66907
ELEMENT_SET_NO = 999
REV_AT_EPOCH   = 482
BSTAR          = .1502475E-2
MEAN_MOTION_DOT = .101426E-2
MEAN_MOTION_DDOT = 0

CCSDS_OMM_VERS = 2.0
CREATION_DATE  = 
ORIGINATOR     = 

OBJECT_NAME    = 1998-067XU
OBJECT_ID      = 1998-067XU
CENTER_NAME    = EARTH
REF_FRAME      = TEME
TIME_SYSTEM    = UTC
MEAN_ELEMENT_THEORY = SGP/SGP4

EPOCH          = 2026-01-02T09:13:26.267520
MEAN_MOTION    = 15.54401853
ECCENTRICITY   = .00039121
INCLINATION    = 51.6302
RA_OF_ASC_NODE = 39.6478
ARG_OF_PERICENTER = 349.5854
MEAN_ANOMALY   = 10.5055

EPHEMERIS_TYPE = 0
CLASSIFICATION_TYPE = U
NORAD_CAT_ID   = 66908
ELEMENT_SET_NO = 999
REV_AT_EPOCH   = 482
BSTAR          = .15029231E-2
MEAN_MOTION_DOT = .101317E-2
MEAN_MOTION_DDOT = 0

CCSDS_OMM_VERS = 2.0
CREATION_DATE  = 
ORIGINATOR     = 

OBJECT_NAME    = SILVERSAT
OBJECT_ID      = 1998-067XV
CENTER_NAME    = EARTH
REF_FRAME      = TEME
TIME_SYSTEM    = UTC
MEAN_ELEMENT_THEORY = SGP/SGP4

EPOCH          = 2026-01-02T09:08:08.612736
MEAN_MOTION    = 15.54908343
ECCENTRICITY   = .00039944
INCLINATION    = 51.6305
RA_OF_ASC_NODE = 39.6237
ARG_OF_PERICENTER = 357.3938
MEAN_ANOMALY   = 2.7031

EPHEMERIS_TYPE = 0
CLASSIFICATION_TYPE = U
NORAD_CAT_ID   = 66909
ELEMENT_SET_NO = 999
REV_AT_EPOCH   = 482
BSTAR          = .16346237E-2
MEAN_MOTION_DOT = .112467E-2
MEAN_MOTION_DDOT = 0

CCSDS_OMM_VERS = 2.0
CREATION_DATE  = 
ORIGINATOR     = 

OBJECT_NAME    = 1998-067XW
OBJECT_ID      = 1998-067XW
CENTER_NAME    = EARTH
REF_FRAME      = TEME
TIME_SYSTEM    = UTC
MEAN_ELEMENT_THEORY = SGP/SGP4

EPOCH          = 2026-01-02T15:17:07.154304
MEAN_MOTION    = 15.54745993
ECCENTRICITY   = .00032173
INCLINATION    = 51.6309
RA_OF_ASC_NODE = 38.3343
ARG_OF_PERICENTER = 331.0556
MEAN_ANOMALY   = 29.0256

EPHEMERIS_TYPE = 0
CLASSIFICATION_TYPE = U
NORAD_CAT_ID   = 66910
ELEMENT_SET_NO = 999
REV_AT_EPOCH   = 486
BSTAR          = .15002764E-2
MEAN_MOTION_DOT = .102429E-2
MEAN_MOTION_DDOT = 0

CCSDS_OMM_VERS = 2.0
CREATION_DATE  = 
ORIGINATOR     = 

OBJECT_NAME    = 1998-067XX
OBJECT_ID      = 1998-067XX
CENTER_NAME    = EARTH
REF_FRAME      = TEME
TIME_SYSTEM    = UTC
MEAN_ELEMENT_THEORY = SGP/SGP4

EPOCH          = 2026-01-02T19:43:52.071744
MEAN_MOTION    = 15.55614489
ECCENTRICITY   = .0003124
INCLINATION    = 51.6316
RA_OF_ASC_NODE = 37.3219
ARG_OF_PERICENTER = 346.6622
MEAN_ANOMALY   = 13.4286

EPHEMERIS_TYPE = 0
CLASSIFICATION_TYPE = U
NORAD_CAT_ID   = 66911
ELEMENT_SET_NO = 999
REV_AT_EPOCH   = 488
BSTAR          = .17634E-2
MEAN_MOTION_DOT = .124751E-2
MEAN_MOTION_DDOT = 0

CCSDS_OMM_VERS = 2.0
CREATION_DATE  = 
ORIGINATOR     = 

OBJECT_NAME    = 1998-067XY
OBJECT_ID      = 1998-067XY
CENTER_NAME    = EARTH
REF_FRAME      = TEME
TIME_SYSTEM    = UTC
MEAN_ELEMENT_THEORY = SGP/SGP4

EPOCH          = 2026-01-02T09:27:53.596512
MEAN_MOTION    = 15.53471652
ECCENTRICITY   = .00037025
INCLINATION    = 51.6316
RA_OF_ASC_NODE = 39.7160
ARG_OF_PERICENTER = 342.0500
MEAN_ANOMALY   = 18.0359

EPHEMERIS_TYPE = 0
CLASSIFICATION_TYPE = U
NORAD_CAT_ID   = 66912
ELEMENT_SET_NO = 999
REV_AT_EPOCH   = 481
BSTAR          = .11812572E-2
MEAN_MOTION_DOT = .76626E-3
MEAN_MOTION_DDOT = 0

CCSDS_OMM_VERS = 2.0
CREATION_DATE  = 
ORIGINATOR     = 

OBJECT_NAME    = 2025-284A
OBJECT_ID      = 2025-284A
CENTER_NAME    = EARTH
REF_FRAME      = TEME
TIME_SYSTEM    = UTC
MEAN_ELEMENT_THEORY = SGP/SGP4

EPOCH          = 2025-12-31T01:12:32.723136
MEAN_MOTION    = 14.98433865
ECCENTRICITY   = .0016555
INCLINATION    = 80.4033
RA_OF_ASC_NODE = 106.9667
ARG_OF_PERICENTER = 221.3672
MEAN_ANOMALY   = 138.6292

EPHEMERIS_TYPE = 0
CLASSIFICATION_TYPE = U
NORAD_CAT_ID   = 66913
ELEMENT_SET_NO = 999
REV_AT_EPOCH   = 388
BSTAR          = .77971E-3
MEAN_MOTION_DOT = .9355E-4
MEAN_MOTION_DDOT = 0

